{"fetched_at":"2026-03-30T13:17:50Z","count":15418,"tles":[{"name":"STARLINK-5758","line1":"1 56037U 23042BD  26087.84756568  .00006148  00000+0  23873-3 0  9998","line2":"2 56037  42.9999 282.4175 0001060 266.2484  93.8246 15.26735659166131","category":"Starlink"}]}